{"type":"FeatureCollection", "features": [
{"type":"Feature","geometry":{"type":"Polygon","coordinates":[[[35.01731,31.76878],[35.0137,31.76843],[35.00998,31.76665],[35.00943,31.76593],[35.00875,31.76254],[35.00577,31.76059],[35.00422,31.76042],[34.99812,31.76078],[34.99502,31.7627],[34.99136,31.76088],[34.98916,31.75871],[34.98712,31.75835],[34.98349,31.75574],[34.97935,31.75413],[34.97765,31.75168],[34.97421,31.74796],[34.97332,31.74601],[34.97333,31.74158],[34.97303,31.74079],[34.96878,31.73715],[34.96744,31.73789],[34.96515,31.73815],[34.9609,31.73754],[34.95917,31.73833],[34.95889,31.73998],[34.95819,31.7408],[34.95662,31.74126],[34.95319,31.74135],[34.95209,31.74094],[34.94789,31.74102],[34.94707,31.74051],[34.94754,31.73778],[34.95053,31.73394],[34.95164,31.73312],[34.9549,31.73199],[34.95699,31.72974],[34.95925,31.72991],[34.9608,31.72702],[34.9613,31.72521],[34.961,31.72263],[34.96282,31.72193],[34.96423,31.72071],[34.96246,31.7168],[34.96116,31.71541],[34.96014,31.71229],[34.95797,31.71047],[34.95507,31.70933],[34.95257,31.70903],[34.95121,31.70938],[34.94986,31.70872],[34.94915,31.70705],[34.94824,31.70627],[34.94569,31.70531],[34.94476,31.70451],[34.94306,31.70111],[34.94231,31.69817],[34.94238,31.69698],[34.94375,31.69449],[34.94347,31.69206],[34.9441,31.69103],[34.94674,31.69233],[34.94763,31.69207],[34.95137,31.69355],[34.95553,31.69365],[34.95704,31.69319],[34.96098,31.69317],[34.96466,31.69342],[34.96545,31.69439],[34.96736,31.69372],[34.96872,31.69389],[34.97006,31.69272],[34.97236,31.69295],[34.97583,31.6922],[34.97735,31.69048],[34.97868,31.69093],[34.98063,31.69036],[34.98318,31.69185],[34.98544,31.69186],[34.98607,31.68852],[34.98843,31.68848],[34.99062,31.68747],[34.99169,31.68782],[34.99545,31.68713],[34.99727,31.6879],[34.99857,31.69142],[34.99986,31.69147],[35.00161,31.69053],[35.00463,31.69141],[35.00486,31.69278],[35.00606,31.69312],[35.00727,31.69432],[35.01034,31.69441],[35.01124,31.6962],[35.00938,31.69847],[35.00845,31.70531],[35.0064,31.7084],[35.00595,31.70949],[35.00626,31.71127],[35.00856,31.71707],[35.00938,31.72266],[35.00895,31.72439],[35.00694,31.72659],[35.00643,31.72763],[35.00571,31.73106],[35.0045,31.73064],[35.00457,31.72891],[35.00223,31.72787],[35.00084,31.72799],[34.99882,31.72933],[34.99542,31.72963],[34.99514,31.73144],[34.99371,31.73299],[34.99365,31.73478],[34.9958,31.73477],[34.99919,31.73533],[35.00064,31.73624],[35.00273,31.73943],[35.00183,31.7407],[35.00145,31.74228],[35.00162,31.74473],[35.00281,31.74705],[35.00309,31.74842],[35.00117,31.75117],[35.00053,31.75385],[35.00067,31.75484],[34.99932,31.75664],[35.0019,31.75709],[35.00411,31.7561],[35.00601,31.75679],[35.00901,31.75676],[35.00928,31.75763],[35.00882,31.75961],[35.00982,31.76071],[35.01128,31.76059],[35.01206,31.7593],[35.01348,31.75929],[35.0142,31.7585],[35.01637,31.75756],[35.01776,31.75815],[35.01923,31.75792],[35.0202,31.75978],[35.01868,31.76037],[35.02193,31.76381],[35.023,31.76467],[35.02323,31.76669],[35.022,31.7674],[35.01962,31.76784],[35.01731,31.76878]]]},"properties":{"slug":"beit-shemesh","name_en":"Beit Shemesh","name_he":"תחנת בית שמש","short_he":"בית-שמש","merhav_he":"ציון","mahoz_he":"ירושלים","palette":"teal-lt","layer":"police"}},
{"type":"Feature","geometry":{"type":"Polygon","coordinates":[[[35.22675,31.7713],[35.22894,31.76991],[35.2304,31.77133],[35.2313,31.77287],[35.23448,31.77477],[35.23654,31.77496],[35.23782,31.77623],[35.23773,31.78005],[35.23896,31.78192],[35.23698,31.78378],[35.23119,31.78248],[35.22773,31.77968],[35.22601,31.77936],[35.22514,31.77894],[35.22735,31.77676],[35.22675,31.7713]]]},"properties":{"slug":"merhav-david","name_en":"Merhav David (Old City & Centre)","name_he":"מרחב דוד","short_he":"דוד","merhav_he":"דוד","mahoz_he":"ירושלים","palette":"purple-lt","layer":"police"}},
{"type":"Feature","geometry":{"type":"Polygon","coordinates":[[[35.177,31.7947],[35.17352,31.7952],[35.17202,31.79613],[35.17229,31.79831],[35.17365,31.79977],[35.1751,31.80064],[35.17654,31.8009],[35.17949,31.80036],[35.1817,31.80134],[35.17645,31.80124],[35.17427,31.80056],[35.17134,31.79779],[35.17049,31.79809],[35.17126,31.79952],[35.17183,31.80266],[35.17331,31.80498],[35.17774,31.80304],[35.18111,31.80489],[35.18212,31.805],[35.18279,31.80616],[35.18178,31.80778],[35.17855,31.80826],[35.17742,31.80791],[35.17523,31.80928],[35.17412,31.80944],[35.17307,31.81105],[35.17206,31.81409],[35.17181,31.81656],[35.17013,31.82003],[35.1695,31.82204],[35.16808,31.82372],[35.16736,31.82655],[35.16615,31.8283],[35.16552,31.82744],[35.16489,31.82461],[35.16481,31.82247],[35.16623,31.82118],[35.16724,31.81738],[35.16632,31.81724],[35.16514,31.82071],[35.16317,31.82157],[35.16246,31.82058],[35.16317,31.81978],[35.16366,31.81783],[35.16199,31.81521],[35.16154,31.81323],[35.15955,31.81417],[35.15858,31.81408],[35.15701,31.81286],[35.15227,31.81306],[35.15074,31.81199],[35.14862,31.81152],[35.14536,31.81245],[35.14359,31.81455],[35.14045,31.81433],[35.13963,31.81399],[35.13912,31.81613],[35.13826,31.81655],[35.13544,31.81673],[35.1335,31.81773],[35.13284,31.819],[35.13381,31.81954],[35.13736,31.81899],[35.13879,31.81928],[35.13942,31.82106],[35.13784,31.82285],[35.14007,31.82361],[35.1409,31.82443],[35.14031,31.82608],[35.13729,31.82817],[35.13522,31.83046],[35.13356,31.83176],[35.13115,31.83225],[35.12955,31.8315],[35.12814,31.8324],[35.12611,31.83285],[35.12393,31.83166],[35.12326,31.82885],[35.12137,31.82917],[35.11993,31.82787],[35.12026,31.82539],[35.11724,31.82504],[35.11652,31.82281],[35.11577,31.82234],[35.11141,31.82366],[35.10931,31.82359],[35.10696,31.82488],[35.10473,31.82505],[35.10219,31.82623],[35.10057,31.82803],[35.10075,31.82875],[35.09802,31.83049],[35.09812,31.8312],[35.10042,31.83256],[35.09997,31.8333],[35.10069,31.83489],[35.09987,31.83531],[35.09854,31.83448],[35.09682,31.83495],[35.09622,31.83621],[35.09423,31.83709],[35.09222,31.83885],[35.09049,31.8408],[35.08883,31.84202],[35.08791,31.8433],[35.08804,31.84425],[35.08947,31.84539],[35.09049,31.84553],[35.09425,31.84424],[35.09148,31.8477],[35.09606,31.84751],[35.09651,31.84813],[35.09363,31.84965],[35.09152,31.85141],[35.08774,31.85254],[35.08501,31.85283],[35.08466,31.8538],[35.08602,31.85422],[35.08611,31.85573],[35.08346,31.85537],[35.08223,31.85596],[35.08075,31.85549],[35.0785,31.85601],[35.07656,31.85501],[35.07557,31.85526],[35.07386,31.85669],[35.07081,31.85797],[35.06428,31.85534],[35.06183,31.85524],[35.05989,31.85672],[35.05741,31.85568],[35.05392,31.85322],[35.05138,31.85287],[35.0504,31.85209],[35.04973,31.85048],[35.04789,31.85002],[35.04892,31.84845],[35.04674,31.84846],[35.04452,31.84392],[35.04206,31.84139],[35.03992,31.84202],[35.03721,31.84131],[35.03816,31.84003],[35.03811,31.83912],[35.03704,31.83838],[35.03582,31.83869],[35.03447,31.83372],[35.03447,31.8326],[35.03285,31.8319],[35.03108,31.82945],[35.03069,31.82625],[35.02725,31.82332],[35.0253,31.81954],[35.02454,31.81917],[35.02589,31.81759],[35.02384,31.8157],[35.02525,31.81406],[35.0285,31.81204],[35.03104,31.81016],[35.03326,31.80801],[35.03418,31.80755],[35.03812,31.80648],[35.0429,31.80618],[35.04627,31.80414],[35.04957,31.80349],[35.05086,31.80381],[35.05459,31.80597],[35.05813,31.80705],[35.06005,31.80674],[35.06592,31.80346],[35.07433,31.80043],[35.07556,31.80019],[35.08072,31.80076],[35.08278,31.80074],[35.0854,31.80023],[35.08957,31.80036],[35.0917,31.79916],[35.09232,31.79695],[35.09545,31.79473],[35.0954,31.79116],[35.09666,31.79041],[35.09913,31.79006],[35.10006,31.79029],[35.10299,31.79245],[35.10599,31.79249],[35.10769,31.79291],[35.10863,31.79252],[35.11013,31.78919],[35.11212,31.78803],[35.11365,31.78438],[35.11421,31.78595],[35.11579,31.78704],[35.11767,31.787],[35.11852,31.78901],[35.11936,31.78919],[35.12025,31.79057],[35.12185,31.78916],[35.12225,31.78761],[35.12405,31.78698],[35.12464,31.7876],[35.12403,31.7888],[35.12587,31.78971],[35.12796,31.78898],[35.12878,31.79035],[35.1316,31.79005],[35.13338,31.7919],[35.13595,31.79314],[35.13655,31.7919],[35.13389,31.79042],[35.13379,31.78821],[35.13503,31.78647],[35.13642,31.78602],[35.13652,31.78388],[35.13465,31.78351],[35.13254,31.78144],[35.1325,31.77979],[35.13178,31.77825],[35.13048,31.7775],[35.1291,31.77787],[35.12721,31.77777],[35.12602,31.77624],[35.12645,31.77525],[35.12876,31.77526],[35.1294,31.777],[35.13581,31.77767],[35.13587,31.77564],[35.13853,31.77425],[35.14025,31.77108],[35.14212,31.77104],[35.14504,31.77337],[35.14744,31.77382],[35.14881,31.77465],[35.15098,31.77384],[35.15338,31.77344],[35.15635,31.77533],[35.15592,31.77668],[35.15282,31.77611],[35.15189,31.77766],[35.15227,31.77987],[35.15148,31.78138],[35.15312,31.78174],[35.15485,31.77957],[35.15671,31.78027],[35.15813,31.7764],[35.16006,31.77713],[35.16369,31.77777],[35.16576,31.77872],[35.16595,31.78204],[35.16913,31.78402],[35.16559,31.78493],[35.16434,31.7856],[35.16405,31.7867],[35.16568,31.78806],[35.16697,31.78963],[35.16706,31.79047],[35.16903,31.7899],[35.17044,31.79264],[35.17201,31.79454],[35.17385,31.79486],[35.177,31.7947]]]},"properties":{"slug":"harel","name_en":"Harel","name_he":"תחנת הראל","short_he":"הראל","merhav_he":"ציון","mahoz_he":"ירושלים","palette":"teal-dk","layer":"police"}},
{"type":"Feature","geometry":{"type":"Polygon","coordinates":[[[35.22601,31.77936],[35.22841,31.78108],[35.22739,31.78386],[35.22761,31.78508],[35.22686,31.78863],[35.22662,31.79263],[35.22734,31.79443],[35.23203,31.79849],[35.23288,31.79944],[35.23447,31.80241],[35.23582,31.80779],[35.23388,31.80615],[35.23162,31.80593],[35.22576,31.80907],[35.22356,31.80937],[35.22004,31.81412],[35.21944,31.81415],[35.21772,31.81709],[35.21529,31.81892],[35.21325,31.81806],[35.2129,31.81904],[35.2144,31.82181],[35.21475,31.82367],[35.2141,31.8264],[35.21205,31.83031],[35.21142,31.83261],[35.21163,31.84031],[35.21156,31.8426],[35.21072,31.84717],[35.21049,31.84973],[35.2108,31.85353],[35.20992,31.85646],[35.20874,31.85794],[35.2071,31.85903],[35.2031,31.8607],[35.19337,31.86548],[35.18412,31.86903],[35.17833,31.87155],[35.17557,31.86963],[35.17459,31.86943],[35.17216,31.86667],[35.1706,31.86733],[35.169,31.86735],[35.16647,31.86907],[35.16358,31.87017],[35.1612,31.87225],[35.15924,31.87244],[35.15663,31.87186],[35.15443,31.87009],[35.15288,31.86959],[35.14634,31.86991],[35.14186,31.86958],[35.13891,31.86967],[35.13642,31.87025],[35.1333,31.87166],[35.13231,31.8692],[35.13098,31.86824],[35.1315,31.86739],[35.13375,31.86829],[35.13519,31.86776],[35.13308,31.86645],[35.13193,31.86514],[35.13246,31.8642],[35.13372,31.86399],[35.13835,31.86193],[35.14013,31.86176],[35.14192,31.86239],[35.14394,31.86244],[35.1462,31.86125],[35.14713,31.85997],[35.14817,31.85722],[35.1505,31.85684],[35.1495,31.85567],[35.15075,31.85415],[35.15162,31.85235],[35.1517,31.85074],[35.15251,31.84907],[35.15465,31.84761],[35.1575,31.84352],[35.15822,31.84323],[35.1597,31.84038],[35.16155,31.83839],[35.16202,31.83652],[35.15872,31.83415],[35.15856,31.83339],[35.15979,31.83114],[35.16143,31.83169],[35.16378,31.83141],[35.16961,31.83142],[35.17122,31.82959],[35.17482,31.82812],[35.17812,31.82647],[35.18249,31.82588],[35.18457,31.82587],[35.18298,31.8244],[35.1823,31.8202],[35.18366,31.81882],[35.18492,31.81523],[35.18582,31.81394],[35.18727,31.81311],[35.18803,31.80909],[35.18765,31.8061],[35.18716,31.80518],[35.18584,31.80498],[35.18178,31.80778],[35.18279,31.80616],[35.18212,31.805],[35.18111,31.80489],[35.17774,31.80304],[35.17331,31.80498],[35.17183,31.80266],[35.17126,31.79952],[35.17049,31.79809],[35.17134,31.79779],[35.17427,31.80056],[35.17645,31.80124],[35.1817,31.80134],[35.17949,31.80036],[35.17654,31.8009],[35.1751,31.80064],[35.17365,31.79977],[35.17229,31.79831],[35.17202,31.79613],[35.17352,31.7952],[35.177,31.7947],[35.18267,31.79408],[35.18424,31.79455],[35.18647,31.7944],[35.18793,31.79558],[35.18942,31.79552],[35.1921,31.79476],[35.19276,31.79339],[35.19464,31.79319],[35.19722,31.79049],[35.19941,31.78901],[35.19973,31.78801],[35.19842,31.78581],[35.20287,31.78241],[35.20468,31.782],[35.20586,31.77898],[35.20669,31.77891],[35.20709,31.77744],[35.20717,31.7745],[35.20848,31.77623],[35.20942,31.77621],[35.21059,31.7744],[35.21393,31.77453],[35.21796,31.77506],[35.21954,31.77366],[35.22269,31.77176],[35.22512,31.76732],[35.22618,31.76725],[35.22643,31.76833],[35.22567,31.7696],[35.22567,31.77091],[35.22649,31.77127],[35.22675,31.7713],[35.22735,31.77676],[35.22514,31.77894],[35.22601,31.77936]],[[35.18483,31.86392],[35.18182,31.86708],[35.18194,31.86898],[35.18451,31.86846],[35.19356,31.86495],[35.1946,31.86398],[35.19756,31.86254],[35.19864,31.86251],[35.20164,31.86082],[35.20415,31.85983],[35.20491,31.85878],[35.20913,31.85681],[35.21044,31.85393],[35.21004,31.8494],[35.21124,31.84229],[35.21107,31.83388],[35.21114,31.83217],[35.21225,31.82895],[35.21171,31.82834],[35.2118,31.82648],[35.21118,31.82406],[35.21141,31.82105],[35.21036,31.8197],[35.20713,31.82031],[35.20512,31.82213],[35.19989,31.82424],[35.19906,31.8257],[35.19966,31.82806],[35.19849,31.82999],[35.19723,31.83607],[35.19586,31.83767],[35.19332,31.83726],[35.19254,31.83987],[35.19058,31.84064],[35.18785,31.83914],[35.18525,31.83881],[35.18173,31.83779],[35.18032,31.83853],[35.17876,31.84098],[35.17746,31.84209],[35.1753,31.84252],[35.17349,31.84643],[35.17428,31.84907],[35.17383,31.85027],[35.17185,31.85148],[35.17193,31.85252],[35.17288,31.85357],[35.17455,31.85345],[35.17537,31.85409],[35.17566,31.85796],[35.17639,31.8584],[35.179,31.85803],[35.18087,31.85868],[35.18423,31.86144],[35.185,31.86276],[35.18483,31.86392]]]},"properties":{"slug":"lev-habira","name_en":"Lev HaBira (City Centre)","name_he":"תחנת לב הבירה","short_he":"לב הבירה","merhav_he":"ציון","mahoz_he":"ירושלים","palette":"purple","layer":"police"}},
{"type":"Feature","geometry":{"type":"Polygon","coordinates":[[[35.12602,31.77624],[35.12159,31.77568],[35.11895,31.7744],[35.11892,31.77147],[35.11668,31.76991],[35.11786,31.766],[35.11874,31.76578],[35.12045,31.76306],[35.11868,31.7613],[35.11809,31.76008],[35.1179,31.7581],[35.11722,31.75625],[35.11606,31.75523],[35.11401,31.75562],[35.11373,31.75468],[35.11425,31.75043],[35.11492,31.74774],[35.11619,31.74542],[35.11563,31.74285],[35.1163,31.74037],[35.11726,31.73893],[35.11728,31.73754],[35.1188,31.73592],[35.1196,31.73691],[35.12048,31.7404],[35.12294,31.74303],[35.12464,31.74372],[35.12575,31.74361],[35.12708,31.74199],[35.12671,31.73857],[35.12428,31.73704],[35.12375,31.73571],[35.12405,31.73467],[35.12546,31.73305],[35.12727,31.73263],[35.12938,31.73358],[35.13055,31.73463],[35.13356,31.73603],[35.13612,31.73621],[35.13751,31.73541],[35.13824,31.7329],[35.13822,31.7315],[35.13896,31.73059],[35.14084,31.73064],[35.14164,31.73258],[35.14286,31.73386],[35.14488,31.73455],[35.1468,31.73603],[35.14825,31.7348],[35.15219,31.73403],[35.15419,31.73328],[35.15513,31.73372],[35.15564,31.73604],[35.15501,31.73764],[35.15581,31.73862],[35.15726,31.73903],[35.15745,31.7405],[35.15843,31.74224],[35.16013,31.74256],[35.16103,31.74098],[35.16328,31.73937],[35.16413,31.73757],[35.16627,31.7367],[35.16615,31.73457],[35.1656,31.7325],[35.16607,31.73014],[35.16817,31.72827],[35.16787,31.72597],[35.16688,31.72552],[35.16563,31.72661],[35.16338,31.726],[35.16266,31.72433],[35.1647,31.72245],[35.16718,31.72242],[35.16812,31.72206],[35.17062,31.71957],[35.1733,31.71931],[35.17584,31.71841],[35.17671,31.71906],[35.17506,31.72243],[35.17506,31.72417],[35.17684,31.7243],[35.17806,31.72344],[35.18227,31.72256],[35.1845,31.72163],[35.18737,31.72428],[35.18994,31.7237],[35.19087,31.72488],[35.19295,31.72415],[35.19391,31.72339],[35.19572,31.72342],[35.19725,31.72132],[35.19985,31.72074],[35.20056,31.72156],[35.20174,31.72123],[35.20223,31.72379],[35.2027,31.72426],[35.20372,31.72447],[35.20487,31.72781],[35.20559,31.7312],[35.20891,31.73359],[35.2134,31.74049],[35.21411,31.74192],[35.21625,31.74462],[35.21886,31.74956],[35.22062,31.75398],[35.22242,31.75642],[35.22337,31.75868],[35.2253,31.76229],[35.22558,31.76596],[35.22618,31.76725],[35.22512,31.76732],[35.22269,31.77176],[35.21954,31.77366],[35.21796,31.77506],[35.21393,31.77453],[35.21059,31.7744],[35.20942,31.77621],[35.20848,31.77623],[35.20717,31.7745],[35.20709,31.77744],[35.20669,31.77891],[35.20586,31.77898],[35.20468,31.782],[35.20287,31.78241],[35.19842,31.78581],[35.19973,31.78801],[35.19941,31.78901],[35.19722,31.79049],[35.19464,31.79319],[35.19276,31.79339],[35.1921,31.79476],[35.18942,31.79552],[35.18793,31.79558],[35.18647,31.7944],[35.18424,31.79455],[35.18267,31.79408],[35.177,31.7947],[35.17385,31.79486],[35.17201,31.79454],[35.17044,31.79264],[35.16903,31.7899],[35.16706,31.79047],[35.16697,31.78963],[35.16568,31.78806],[35.16405,31.7867],[35.16434,31.7856],[35.16559,31.78493],[35.16913,31.78402],[35.16595,31.78204],[35.16576,31.77872],[35.16369,31.77777],[35.16006,31.77713],[35.15813,31.7764],[35.15671,31.78027],[35.15485,31.77957],[35.15312,31.78174],[35.15148,31.78138],[35.15227,31.77987],[35.15189,31.77766],[35.15282,31.77611],[35.15592,31.77668],[35.15635,31.77533],[35.15338,31.77344],[35.15098,31.77384],[35.14881,31.77465],[35.14744,31.77382],[35.14504,31.77337],[35.14212,31.77104],[35.14025,31.77108],[35.13853,31.77425],[35.13587,31.77564],[35.13581,31.77767],[35.1294,31.777],[35.12876,31.77526],[35.12645,31.77525],[35.12602,31.77624]]]},"properties":{"slug":"moriah","name_en":"Moriah","name_he":"תחנת מוריה","short_he":"מוריה","merhav_he":"ציון","mahoz_he":"ירושלים","palette":"pink","layer":"police"}},
{"type":"Feature","geometry":{"type":"Polygon","coordinates":[[[35.02454,31.81917],[35.02341,31.819],[35.01982,31.82151],[35.01671,31.82246],[35.01227,31.82438],[35.00578,31.8261],[35.00248,31.82645],[34.99655,31.82632],[34.99331,31.82706],[34.99058,31.82909],[34.98934,31.8312],[34.9878,31.83699],[34.98804,31.83917],[34.9864,31.84158],[34.98555,31.84425],[34.98169,31.85744],[34.9803,31.86058],[34.97897,31.86226],[34.97588,31.86463],[34.96025,31.87297],[34.95659,31.87543],[34.9554,31.87507],[34.95658,31.87248],[34.95507,31.87132],[34.95552,31.86794],[34.95639,31.86626],[34.95797,31.86508],[34.95842,31.86328],[34.95992,31.86232],[34.95915,31.85961],[34.95747,31.85833],[34.95573,31.8551],[34.95399,31.85378],[34.95387,31.85228],[34.95435,31.85049],[34.95295,31.84887],[34.95159,31.84661],[34.95037,31.84618],[34.94718,31.84844],[34.94487,31.84837],[34.942,31.84703],[34.93995,31.84658],[34.93899,31.84438],[34.94171,31.84285],[34.93857,31.8411],[34.93781,31.84172],[34.93558,31.84178],[34.9348,31.84045],[34.93336,31.83948],[34.9321,31.8393],[34.9294,31.83741],[34.92585,31.83625],[34.92341,31.83661],[34.9217,31.83605],[34.92025,31.83655],[34.91808,31.83653],[34.91712,31.83585],[34.91804,31.8348],[34.9168,31.83414],[34.91543,31.83472],[34.91266,31.83259],[34.91408,31.83121],[34.91348,31.83018],[34.91059,31.83042],[34.91038,31.82872],[34.91209,31.81928],[34.91296,31.81746],[34.91475,31.81611],[34.91696,31.8152],[34.91298,31.81325],[34.91066,31.81258],[34.90647,31.81218],[34.90325,31.81161],[34.89971,31.81066],[34.8962,31.81025],[34.89311,31.8103],[34.88827,31.8107],[34.88615,31.81068],[34.88109,31.81017],[34.87836,31.80938],[34.87549,31.80896],[34.87136,31.8089],[34.86778,31.80967],[34.86399,31.81007],[34.86104,31.80997],[34.85467,31.80913],[34.85091,31.8081],[34.84282,31.80505],[34.84034,31.80362],[34.8375,31.80022],[34.83595,31.79882],[34.8372,31.79763],[34.83843,31.79513],[34.83813,31.79266],[34.83702,31.78842],[34.83483,31.78359],[34.83715,31.78307],[34.83866,31.7809],[34.83975,31.77811],[34.83958,31.77656],[34.84057,31.77455],[34.84307,31.77139],[34.84132,31.76797],[34.84022,31.768],[34.8406,31.76609],[34.84141,31.76451],[34.84298,31.76263],[34.84321,31.76133],[34.84141,31.75927],[34.8393,31.75604],[34.83864,31.7512],[34.84132,31.75059],[34.8522,31.75306],[34.85356,31.75357],[34.85555,31.75361],[34.85676,31.75249],[34.85811,31.75224],[34.86003,31.75408],[34.86324,31.75513],[34.86452,31.75404],[34.86651,31.75622],[34.86789,31.75592],[34.87061,31.75179],[34.86976,31.75098],[34.87004,31.7492],[34.87182,31.74871],[34.87372,31.74679],[34.87149,31.74364],[34.8697,31.74298],[34.8681,31.74302],[34.86642,31.74155],[34.86556,31.74028],[34.86432,31.7363],[34.86335,31.73588],[34.8641,31.73413],[34.86188,31.73386],[34.86073,31.73324],[34.86122,31.73153],[34.86393,31.7316],[34.86465,31.72872],[34.86333,31.72722],[34.86598,31.72227],[34.86752,31.7217],[34.86759,31.71946],[34.86692,31.7183],[34.86504,31.71693],[34.86457,31.71473],[34.86843,31.71412],[34.86917,31.71228],[34.86857,31.7101],[34.86765,31.70862],[34.86851,31.70759],[34.86768,31.70654],[34.86714,31.70456],[34.86793,31.70281],[34.87147,31.70156],[34.8695,31.70097],[34.8692,31.69967],[34.86549,31.69818],[34.8642,31.69627],[34.86438,31.69337],[34.86892,31.69267],[34.87002,31.69211],[34.87146,31.69012],[34.87263,31.68936],[34.87223,31.68845],[34.87289,31.68744],[34.87087,31.68504],[34.86936,31.68232],[34.86753,31.68066],[34.86786,31.67943],[34.8677,31.67732],[34.86931,31.67723],[34.86921,31.67557],[34.86813,31.67514],[34.86784,31.67394],[34.86598,31.67369],[34.86489,31.67171],[34.86615,31.67089],[34.86616,31.66809],[34.86787,31.66809],[34.86927,31.6667],[34.86946,31.66168],[34.86732,31.66137],[34.867,31.66021],[34.86431,31.662],[34.86345,31.66121],[34.8639,31.66032],[34.86653,31.6599],[34.86772,31.65934],[34.86738,31.65822],[34.86874,31.6566],[34.87081,31.6558],[34.87214,31.65392],[34.87687,31.65172],[34.87747,31.65229],[34.88279,31.65035],[34.88548,31.64663],[34.88707,31.6448],[34.88726,31.64381],[34.88979,31.64297],[34.8934,31.64337],[34.89444,31.64395],[34.89683,31.64358],[34.89819,31.64429],[34.90017,31.64347],[34.90149,31.64158],[34.90438,31.6398],[34.90663,31.63924],[34.90777,31.63756],[34.90947,31.63588],[34.91109,31.63537],[34.91036,31.63403],[34.91056,31.631],[34.91153,31.63073],[34.91287,31.62699],[34.91252,31.62564],[34.90919,31.62281],[34.90579,31.61717],[34.90409,31.61387],[34.90321,31.61159],[34.90451,31.61177],[34.9089,31.6137],[34.91299,31.61439],[34.91545,31.61519],[34.91853,31.61685],[34.92192,31.61772],[34.92462,31.61748],[34.93057,31.61577],[34.93503,31.61483],[34.93851,31.61445],[34.94612,31.61425],[34.94989,31.61339],[34.95251,31.61152],[34.95404,31.60975],[34.95739,31.60714],[34.96083,31.6029],[34.96335,31.60192],[34.96486,31.60199],[34.96707,31.60285],[34.96602,31.60515],[34.96625,31.60693],[34.9673,31.60772],[34.97748,31.61209],[34.97817,31.61286],[34.97706,31.61516],[34.97719,31.61643],[34.97927,31.61892],[34.97955,31.61998],[34.97858,31.62315],[34.97925,31.62542],[34.98098,31.62702],[34.99121,31.63084],[34.9932,31.63196],[34.99435,31.63355],[34.99704,31.64114],[34.99778,31.64248],[34.99914,31.64363],[34.9996,31.64483],[34.99918,31.64672],[34.99942,31.64777],[35.00098,31.64791],[35.00196,31.6455],[35.00366,31.64532],[35.00661,31.65115],[35.00896,31.65303],[35.01162,31.65421],[35.01354,31.65593],[35.01595,31.65564],[35.02351,31.65844],[35.02616,31.65915],[35.02833,31.66018],[35.03139,31.66082],[35.03248,31.66228],[35.03401,31.66272],[35.03658,31.66408],[35.04011,31.66068],[35.04899,31.66203],[35.05044,31.66275],[35.05127,31.66484],[35.05052,31.66907],[35.0516,31.6698],[35.05436,31.6696],[35.05503,31.67416],[35.05391,31.67466],[35.05611,31.67614],[35.05708,31.67612],[35.06117,31.67844],[35.06462,31.68091],[35.06662,31.68271],[35.06932,31.68427],[35.07255,31.68566],[35.08401,31.6901],[35.08512,31.69064],[35.08461,31.69322],[35.0852,31.69527],[35.08776,31.69743],[35.08948,31.6983],[35.0945,31.70159],[35.09574,31.70366],[35.09586,31.70576],[35.09714,31.7076],[35.09608,31.70863],[35.0968,31.70934],[35.09911,31.70825],[35.09991,31.70938],[35.10136,31.71031],[35.10602,31.71473],[35.1076,31.71464],[35.10928,31.71552],[35.11193,31.71388],[35.11603,31.71426],[35.11729,31.71367],[35.11884,31.71387],[35.12084,31.71565],[35.12168,31.71465],[35.12262,31.71504],[35.12651,31.71498],[35.12816,31.71671],[35.12856,31.71943],[35.13014,31.72025],[35.13079,31.72164],[35.12956,31.72394],[35.12976,31.72443],[35.12801,31.72656],[35.12762,31.72753],[35.1278,31.72974],[35.12727,31.73263],[35.12546,31.73305],[35.12405,31.73467],[35.12375,31.73571],[35.12428,31.73704],[35.12671,31.73857],[35.12708,31.74199],[35.12575,31.74361],[35.12464,31.74372],[35.12294,31.74303],[35.12048,31.7404],[35.1196,31.73691],[35.1188,31.73592],[35.11728,31.73754],[35.11726,31.73893],[35.1163,31.74037],[35.11563,31.74285],[35.11619,31.74542],[35.11492,31.74774],[35.11425,31.75043],[35.11373,31.75468],[35.11401,31.75562],[35.11606,31.75523],[35.11722,31.75625],[35.1179,31.7581],[35.11809,31.76008],[35.11868,31.7613],[35.12045,31.76306],[35.11874,31.76578],[35.11786,31.766],[35.11668,31.76991],[35.11892,31.77147],[35.11895,31.7744],[35.12159,31.77568],[35.12602,31.77624],[35.12721,31.77777],[35.1291,31.77787],[35.13048,31.7775],[35.13178,31.77825],[35.1325,31.77979],[35.13254,31.78144],[35.13465,31.78351],[35.13652,31.78388],[35.13642,31.78602],[35.13503,31.78647],[35.13379,31.78821],[35.13389,31.79042],[35.13655,31.7919],[35.13595,31.79314],[35.13338,31.7919],[35.1316,31.79005],[35.12878,31.79035],[35.12796,31.78898],[35.12587,31.78971],[35.12403,31.7888],[35.12464,31.7876],[35.12405,31.78698],[35.12225,31.78761],[35.12185,31.78916],[35.12025,31.79057],[35.11936,31.78919],[35.11852,31.78901],[35.11767,31.787],[35.11579,31.78704],[35.11421,31.78595],[35.11365,31.78438],[35.11212,31.78803],[35.11013,31.78919],[35.10863,31.79252],[35.10769,31.79291],[35.10599,31.79249],[35.10299,31.79245],[35.10006,31.79029],[35.09913,31.79006],[35.09666,31.79041],[35.0954,31.79116],[35.09545,31.79473],[35.09232,31.79695],[35.0917,31.79916],[35.08957,31.80036],[35.0854,31.80023],[35.08278,31.80074],[35.08072,31.80076],[35.07556,31.80019],[35.07433,31.80043],[35.06592,31.80346],[35.06005,31.80674],[35.05813,31.80705],[35.05459,31.80597],[35.05086,31.80381],[35.04957,31.80349],[35.04627,31.80414],[35.0429,31.80618],[35.03812,31.80648],[35.03418,31.80755],[35.03326,31.80801],[35.03104,31.81016],[35.0285,31.81204],[35.02525,31.81406],[35.02384,31.8157],[35.02589,31.81759],[35.02454,31.81917]],[[35.01731,31.76878],[35.01962,31.76784],[35.022,31.7674],[35.02323,31.76669],[35.023,31.76467],[35.02193,31.76381],[35.01868,31.76037],[35.0202,31.75978],[35.01923,31.75792],[35.01776,31.75815],[35.01637,31.75756],[35.0142,31.7585],[35.01348,31.75929],[35.01206,31.7593],[35.01128,31.76059],[35.00982,31.76071],[35.00882,31.75961],[35.00928,31.75763],[35.00901,31.75676],[35.00601,31.75679],[35.00411,31.7561],[35.0019,31.75709],[34.99932,31.75664],[35.00067,31.75484],[35.00053,31.75385],[35.00117,31.75117],[35.00309,31.74842],[35.00281,31.74705],[35.00162,31.74473],[35.00145,31.74228],[35.00183,31.7407],[35.00273,31.73943],[35.00064,31.73624],[34.99919,31.73533],[34.9958,31.73477],[34.99365,31.73478],[34.99371,31.73299],[34.99514,31.73144],[34.99542,31.72963],[34.99882,31.72933],[35.00084,31.72799],[35.00223,31.72787],[35.00457,31.72891],[35.0045,31.73064],[35.00571,31.73106],[35.00643,31.72763],[35.00694,31.72659],[35.00895,31.72439],[35.00938,31.72266],[35.00856,31.71707],[35.00626,31.71127],[35.00595,31.70949],[35.0064,31.7084],[35.00845,31.70531],[35.00938,31.69847],[35.01124,31.6962],[35.01034,31.69441],[35.00727,31.69432],[35.00606,31.69312],[35.00486,31.69278],[35.00463,31.69141],[35.00161,31.69053],[34.99986,31.69147],[34.99857,31.69142],[34.99727,31.6879],[34.99545,31.68713],[34.99169,31.68782],[34.99062,31.68747],[34.98843,31.68848],[34.98607,31.68852],[34.98544,31.69186],[34.98318,31.69185],[34.98063,31.69036],[34.97868,31.69093],[34.97735,31.69048],[34.97583,31.6922],[34.97236,31.69295],[34.97006,31.69272],[34.96872,31.69389],[34.96736,31.69372],[34.96545,31.69439],[34.96466,31.69342],[34.96098,31.69317],[34.95704,31.69319],[34.95553,31.69365],[34.95137,31.69355],[34.94763,31.69207],[34.94674,31.69233],[34.9441,31.69103],[34.94347,31.69206],[34.94375,31.69449],[34.94238,31.69698],[34.94231,31.69817],[34.94306,31.70111],[34.94476,31.70451],[34.94569,31.70531],[34.94824,31.70627],[34.94915,31.70705],[34.94986,31.70872],[34.95121,31.70938],[34.95257,31.70903],[34.95507,31.70933],[34.95797,31.71047],[34.96014,31.71229],[34.96116,31.71541],[34.96246,31.7168],[34.96423,31.72071],[34.96282,31.72193],[34.961,31.72263],[34.9613,31.72521],[34.9608,31.72702],[34.95925,31.72991],[34.95699,31.72974],[34.9549,31.73199],[34.95164,31.73312],[34.95053,31.73394],[34.94754,31.73778],[34.94707,31.74051],[34.94789,31.74102],[34.95209,31.74094],[34.95319,31.74135],[34.95662,31.74126],[34.95819,31.7408],[34.95889,31.73998],[34.95917,31.73833],[34.9609,31.73754],[34.96515,31.73815],[34.96744,31.73789],[34.96878,31.73715],[34.97303,31.74079],[34.97333,31.74158],[34.97332,31.74601],[34.97421,31.74796],[34.97765,31.75168],[34.97935,31.75413],[34.98349,31.75574],[34.98712,31.75835],[34.98916,31.75871],[34.99136,31.76088],[34.99502,31.7627],[34.99812,31.76078],[35.00422,31.76042],[35.00577,31.76059],[35.00875,31.76254],[35.00943,31.76593],[35.00998,31.76665],[35.0137,31.76843],[35.01731,31.76878]]]},"properties":{"slug":"mateh-yehuda","name_en":"Mateh Yehuda","name_he":"תחנת מטה יהודה","short_he":"מטה יהודה","merhav_he":"ציון","mahoz_he":"ירושלים","palette":"teal","layer":"police"}},
{"type":"Feature","geometry":{"type":"Polygon","coordinates":[[[35.22618,31.76725],[35.22558,31.76596],[35.2253,31.76229],[35.22337,31.75868],[35.22242,31.75642],[35.22062,31.75398],[35.21886,31.74956],[35.21625,31.74462],[35.21411,31.74192],[35.2134,31.74049],[35.20891,31.73359],[35.20559,31.7312],[35.20487,31.72781],[35.20372,31.72447],[35.2027,31.72426],[35.20223,31.72379],[35.20174,31.72123],[35.20216,31.72147],[35.20275,31.72414],[35.20425,31.7237],[35.20562,31.72362],[35.20595,31.72321],[35.20798,31.72404],[35.20896,31.72217],[35.21128,31.72118],[35.21087,31.7191],[35.21595,31.71537],[35.2198,31.71402],[35.22144,31.71284],[35.22235,31.71339],[35.22158,31.71566],[35.22365,31.71555],[35.2252,31.71672],[35.22563,31.71577],[35.22731,31.71563],[35.22854,31.71648],[35.22947,31.71635],[35.23073,31.71412],[35.23475,31.71122],[35.23712,31.71095],[35.23891,31.70896],[35.24283,31.70641],[35.24629,31.70544],[35.24746,31.70704],[35.24659,31.71099],[35.24484,31.70962],[35.24323,31.71173],[35.24753,31.71403],[35.24661,31.7166],[35.24802,31.71816],[35.24894,31.71772],[35.25521,31.7175],[35.25678,31.71899],[35.25597,31.7226],[35.2547,31.72527],[35.25511,31.72767],[35.25286,31.73003],[35.25023,31.73098],[35.24889,31.73254],[35.25015,31.73424],[35.25161,31.73705],[35.2518,31.73993],[35.25308,31.7406],[35.25627,31.74138],[35.25823,31.74331],[35.25882,31.74457],[35.25875,31.74648],[35.26077,31.74825],[35.2589,31.74945],[35.26029,31.75082],[35.25929,31.75132],[35.25818,31.75297],[35.25819,31.75406],[35.25988,31.75726],[35.25873,31.75943],[35.25506,31.76178],[35.25374,31.76079],[35.2529,31.76129],[35.24882,31.76142],[35.24683,31.76108],[35.24546,31.76231],[35.24376,31.76282],[35.23886,31.76342],[35.23609,31.76588],[35.23538,31.76752],[35.23402,31.7686],[35.23205,31.76877],[35.22975,31.76849],[35.22847,31.76875],[35.22649,31.77127],[35.22567,31.77091],[35.22567,31.7696],[35.22643,31.76833],[35.22618,31.76725]]]},"properties":{"slug":"oz","name_en":"Oz","name_he":"תחנת עוז","short_he":"עוז","merhav_he":"קדם","mahoz_he":"ירושלים","palette":"purple-dk","layer":"police"}},
{"type":"Feature","geometry":{"type":"Polygon","coordinates":[[[35.22675,31.7713],[35.22649,31.77127],[35.22847,31.76875],[35.22975,31.76849],[35.23205,31.76877],[35.23402,31.7686],[35.23538,31.76752],[35.23609,31.76588],[35.23886,31.76342],[35.24376,31.76282],[35.24546,31.76231],[35.24683,31.76108],[35.24882,31.76142],[35.2529,31.76129],[35.25374,31.76079],[35.25506,31.76178],[35.25352,31.76197],[35.25312,31.76431],[35.25169,31.76604],[35.2526,31.76722],[35.25245,31.76962],[35.25378,31.76996],[35.25468,31.77111],[35.2538,31.77206],[35.25325,31.77525],[35.25504,31.77587],[35.25754,31.77931],[35.25983,31.78083],[35.26191,31.78067],[35.26291,31.78121],[35.26211,31.7846],[35.26073,31.78662],[35.25808,31.79615],[35.2582,31.79777],[35.25675,31.80132],[35.25464,31.80303],[35.25271,31.8031],[35.24824,31.80243],[35.24653,31.80255],[35.24482,31.80401],[35.24344,31.80678],[35.24192,31.80799],[35.24058,31.80833],[35.23582,31.80779],[35.23447,31.80241],[35.23288,31.79944],[35.23203,31.79849],[35.22734,31.79443],[35.22662,31.79263],[35.22686,31.78863],[35.22761,31.78508],[35.22739,31.78386],[35.22841,31.78108],[35.22601,31.77936],[35.22773,31.77968],[35.23119,31.78248],[35.23698,31.78378],[35.23896,31.78192],[35.23773,31.78005],[35.23782,31.77623],[35.23654,31.77496],[35.23448,31.77477],[35.2313,31.77287],[35.2304,31.77133],[35.22894,31.76991],[35.22675,31.7713]]]},"properties":{"slug":"shalem","name_en":"Shalem","name_he":"תחנת שלם","short_he":"שלם","merhav_he":"קדם","mahoz_he":"ירושלים","palette":"pink-dk","layer":"police"}},
{"type":"Feature","geometry":{"type":"Polygon","coordinates":[[[35.23582,31.80779],[35.24058,31.80833],[35.24192,31.80799],[35.24344,31.80678],[35.24482,31.80401],[35.24653,31.80255],[35.24824,31.80243],[35.25271,31.8031],[35.25464,31.80303],[35.25675,31.80132],[35.2582,31.79777],[35.25808,31.79835],[35.26114,31.8009],[35.26096,31.80151],[35.25876,31.80271],[35.25664,31.80517],[35.25746,31.81206],[35.25843,31.81313],[35.25847,31.81499],[35.25978,31.8158],[35.26053,31.81698],[35.26227,31.81725],[35.26342,31.81914],[35.26422,31.81952],[35.26763,31.81958],[35.26868,31.82029],[35.26884,31.82159],[35.26826,31.82262],[35.26601,31.82356],[35.26292,31.82396],[35.2624,31.82678],[35.25904,31.82718],[35.25732,31.829],[35.25576,31.82926],[35.25373,31.82868],[35.25265,31.82996],[35.25087,31.83072],[35.25085,31.83187],[35.25218,31.83444],[35.2558,31.83676],[35.25638,31.83801],[35.25832,31.83935],[35.26057,31.83976],[35.26225,31.84056],[35.2633,31.84159],[35.26403,31.84374],[35.2654,31.8445],[35.26545,31.84629],[35.26367,31.84696],[35.26178,31.84931],[35.26122,31.84749],[35.26023,31.84728],[35.25887,31.84813],[35.25671,31.84867],[35.25465,31.84854],[35.25374,31.84915],[35.25033,31.84759],[35.24946,31.84769],[35.24446,31.84932],[35.24327,31.84929],[35.24173,31.85006],[35.24078,31.84956],[35.24018,31.84804],[35.24054,31.84722],[35.23987,31.8452],[35.23813,31.8439],[35.23378,31.84471],[35.23227,31.84407],[35.22935,31.84515],[35.22834,31.84794],[35.22496,31.85227],[35.22465,31.85386],[35.22568,31.85998],[35.22694,31.86136],[35.23124,31.85995],[35.23049,31.8619],[35.22836,31.86276],[35.22784,31.86401],[35.22561,31.86745],[35.22302,31.87882],[35.22022,31.88266],[35.21374,31.88243],[35.21265,31.88156],[35.21086,31.88225],[35.20969,31.88149],[35.20803,31.88196],[35.20666,31.88128],[35.20704,31.87929],[35.20417,31.87258],[35.20423,31.87033],[35.20656,31.8651],[35.21146,31.86299],[35.2117,31.85978],[35.2103,31.85931],[35.20874,31.85794],[35.20992,31.85646],[35.2108,31.85353],[35.21049,31.84973],[35.21072,31.84717],[35.21156,31.8426],[35.21163,31.84031],[35.21142,31.83261],[35.21205,31.83031],[35.2141,31.8264],[35.21475,31.82367],[35.2144,31.82181],[35.2129,31.81904],[35.21325,31.81806],[35.21529,31.81892],[35.21772,31.81709],[35.21944,31.81415],[35.22004,31.81412],[35.22356,31.80937],[35.22576,31.80907],[35.23162,31.80593],[35.23388,31.80615],[35.23582,31.80779]]]},"properties":{"slug":"shafat","name_en":"Shafat","name_he":"תחנת שפט","short_he":"שפט","merhav_he":"קדם","mahoz_he":"ירושלים","palette":"teal-lt","layer":"police"}}
]}