{
 "type": "FeatureCollection",
 "features": [
  {
   "type": "Feature",
   "properties": {
    "P_CODE": "-1",
    "AREA_CODE": "",
    "AREA_NAME": "",
    "VAAD_NAME": ""
   },
   "geometry": {
    "type": "Polygon",
    "coordinates": [
     [
      [
       35.213392,
       31.740149
      ],
      [
       35.213617,
       31.740586
      ],
      [
       35.213719,
       31.740785
      ],
      [
       35.213824,
       31.740999
      ],
      [
       35.213809,
       31.741044
      ],
      [
       35.21373,
       31.741082
      ],
      [
       35.213783,
       31.741183
      ],
      [
       35.213952,
       31.741499
      ],
      [
       35.214066,
       31.741469
      ],
      [
       35.214157,
       31.741389
      ],
      [
       35.214253,
       31.741571
      ],
      [
       35.214374,
       31.741709
      ],
      [
       35.214399,
       31.74174
      ],
      [
       35.214518,
       31.741848
      ],
      [
       35.214549,
       31.741902
      ],
      [
       35.214616,
       31.742011
      ],
      [
       35.214691,
       31.742113
      ],
      [
       35.214783,
       31.742205
      ],
      [
       35.214826,
       31.742237
      ],
      [
       35.214759,
       31.742456
      ],
      [
       35.214738,
       31.742517
      ],
      [
       35.214755,
       31.742525
      ],
      [
       35.214769,
       31.742514
      ],
      [
       35.214859,
       31.742502
      ],
      [
       35.21505,
       31.742494
      ],
      [
       35.215163,
       31.74249
      ],
      [
       35.215246,
       31.742498
      ],
      [
       35.215341,
       31.742519
      ],
      [
       35.215438,
       31.742531
      ],
      [
       35.215522,
       31.742518
      ],
      [
       35.215684,
       31.74253
      ],
      [
       35.215727,
       31.742549
      ],
      [
       35.215876,
       31.742636
      ],
      [
       35.215884,
       31.742715
      ],
      [
       35.215882,
       31.742801
      ],
      [
       35.215866,
       31.742829
      ],
      [
       35.215839,
       31.742855
      ],
      [
       35.21577,
       31.742916
      ],
      [
       35.215769,
       31.742946
      ],
      [
       35.215774,
       31.743007
      ],
      [
       35.215764,
       31.743077
      ],
      [
       35.215727,
       31.743146
      ],
      [
       35.215737,
       31.743186
      ],
      [
       35.215763,
       31.743225
      ],
      [
       35.215766,
       31.743243
      ],
      [
       35.215776,
       31.743382
      ],
      [
       35.215776,
       31.743404
      ],
      [
       35.215762,
       31.743453
      ],
      [
       35.215733,
       31.74352
      ],
      [
       35.21573,
       31.743557
      ],
      [
       35.215784,
       31.743634
      ],
      [
       35.21587,
       31.743712
      ],
      [
       35.215957,
       31.743783
      ],
      [
       35.216029,
       31.743828
      ],
      [
       35.216158,
       31.74389
      ],
      [
       35.216221,
       31.74394
      ],
      [
       35.216266,
       31.743955
      ],
      [
       35.216346,
       31.744014
      ],
      [
       35.21637,
       31.744057
      ],
      [
       35.216399,
       31.744122
      ],
      [
       35.216462,
       31.744295
      ],
      [
       35.216464,
       31.744294
      ],
      [
       35.216473,
       31.744291
      ],
      [
       35.216553,
       31.744262
      ],
      [
       35.216738,
       31.744194
      ],
      [
       35.217043,
       31.744111
      ],
      [
       35.217671,
       31.743992
      ],
      [
       35.217673,
       31.743992
      ],
      [
       35.217782,
       31.743979
      ],
      [
       35.218031,
       31.743929
      ],
      [
       35.218136,
       31.743909
      ],
      [
       35.218258,
       31.743873
      ],
      [
       35.218468,
       31.743795
      ],
      [
       35.218585,
       31.743746
      ],
      [
       35.218662,
       31.743706
      ],
      [
       35.218797,
       31.743633
      ],
      [
       35.218885,
       31.743584
      ],
      [
       35.218955,
       31.743537
      ],
      [
       35.219057,
       31.743467
      ],
      [
       35.219134,
       31.743409
      ],
      [
       35.219221,
       31.743332
      ],
      [
       35.219286,
       31.743274
      ],
      [
       35.219363,
       31.7432
      ],
      [
       35.219415,
       31.743139
      ],
      [
       35.219488,
       31.743051
      ],
      [
       35.219544,
       31.742985
      ],
      [
       35.219619,
       31.742898
      ],
      [
       35.219646,
       31.742863
      ],
      [
       35.219668,
       31.742817
      ],
      [
       35.219687,
       31.742761
      ],
      [
       35.219689,
       31.742708
      ],
      [
       35.219687,
       31.742676
      ],
      [
       35.219677,
       31.742622
      ],
      [
       35.219655,
       31.742571
      ],
      [
       35.219652,
       31.742565
      ],
      [
       35.219765,
       31.742504
      ],
      [
       35.219811,
       31.74252
      ],
      [
       35.219868,
       31.742529
      ],
      [
       35.219907,
       31.742527
      ],
      [
       35.219943,
       31.742518
      ],
      [
       35.219974,
       31.742503
      ],
      [
       35.220011,
       31.742484
      ],
      [
       35.220457,
       31.742065
      ],
      [
       35.22059,
       31.741954
      ],
      [
       35.220682,
       31.741878
      ],
      [
       35.220721,
       31.741849
      ],
      [
       35.220797,
       31.741787
      ],
      [
       35.220874,
       31.741729
      ],
      [
       35.221185,
       31.741494
      ],
      [
       35.221341,
       31.741388
      ],
      [
       35.221563,
       31.741257
      ],
      [
       35.221669,
       31.7412
      ],
      [
       35.222016,
       31.741041
      ],
      [
       35.222279,
       31.740947
      ],
      [
       35.222457,
       31.740894
      ],
      [
       35.22275,
       31.740823
      ],
      [
       35.222978,
       31.740783
      ],
      [
       35.223129,
       31.740761
      ],
      [
       35.223412,
       31.740738
      ],
      [
       35.223481,
       31.740652
      ],
      [
       35.223701,
       31.740549
      ],
      [
       35.223933,
       31.740546
      ],
      [
       35.22425,
       31.740636
      ],
      [
       35.224583,
       31.740683
      ],
      [
       35.22471,
       31.740657
      ],
      [
       35.224857,
       31.740669
      ],
      [
       35.224883,
       31.740672
      ],
      [
       35.225114,
       31.740797
      ],
      [
       35.225116,
       31.740798
      ],
      [
       35.225106,
       31.740462
      ],
      [
       35.2251,
       31.740263
      ],
      [
       35.225097,
       31.740143
      ],
      [
       35.22509,
       31.739958
      ],
      [
       35.225078,
       31.739755
      ],
      [
       35.225058,
       31.739385
      ],
      [
       35.22504,
       31.739098
      ],
      [
       35.225028,
       31.73892
      ],
      [
       35.225017,
       31.73874
      ],
      [
       35.224913,
       31.737993
      ],
      [
       35.224741,
       31.73747
      ],
      [
       35.224699,
       31.737342
      ],
      [
       35.224608,
       31.737064
      ],
      [
       35.224417,
       31.736799
      ],
      [
       35.224264,
       31.736612
      ],
      [
       35.224255,
       31.736596
      ],
      [
       35.224202,
       31.73653
      ],
      [
       35.224032,
       31.736337
      ],
      [
       35.223499,
       31.735726
      ],
      [
       35.22308,
       31.735511
      ],
      [
       35.221813,
       31.734306
      ],
      [
       35.221772,
       31.734307
      ],
      [
       35.220898,
       31.734326
      ],
      [
       35.220844,
       31.734268
      ],
      [
       35.220787,
       31.734228
      ],
      [
       35.22069,
       31.734176
      ],
      [
       35.220642,
       31.734166
      ],
      [
       35.220552,
       31.734113
      ],
      [
       35.220455,
       31.734094
      ],
      [
       35.220335,
       31.734095
      ],
      [
       35.219745,
       31.734014
      ],
      [
       35.216236,
       31.737115
      ],
      [
       35.215991,
       31.737332
      ],
      [
       35.215614,
       31.737645
      ],
      [
       35.214649,
       31.73865
      ],
      [
       35.214577,
       31.738703
      ],
      [
       35.214593,
       31.738734
      ],
      [
       35.214495,
       31.738783
      ],
      [
       35.214367,
       31.738884
      ],
      [
       35.214319,
       31.738929
      ],
      [
       35.214118,
       31.739074
      ],
      [
       35.213606,
       31.739707
      ],
      [
       35.2135,
       31.739926
      ],
      [
       35.213497,
       31.739927
      ],
      [
       35.213493,
       31.739928
      ],
      [
       35.213489,
       31.739929
      ],
      [
       35.213485,
       31.73993
      ],
      [
       35.213482,
       31.739931
      ],
      [
       35.213478,
       31.739932
      ],
      [
       35.213474,
       31.739934
      ],
      [
       35.213471,
       31.739935
      ],
      [
       35.213467,
       31.739936
      ],
      [
       35.213464,
       31.739938
      ],
      [
       35.21346,
       31.73994
      ],
      [
       35.213457,
       31.739941
      ],
      [
       35.213453,
       31.739943
      ],
      [
       35.21345,
       31.739945
      ],
      [
       35.213447,
       31.739946
      ],
      [
       35.213443,
       31.739948
      ],
      [
       35.21344,
       31.73995
      ],
      [
       35.213437,
       31.739952
      ],
      [
       35.213434,
       31.739954
      ],
      [
       35.213431,
       31.739956
      ],
      [
       35.213428,
       31.739959
      ],
      [
       35.213425,
       31.739961
      ],
      [
       35.213422,
       31.739963
      ],
      [
       35.213419,
       31.739965
      ],
      [
       35.213416,
       31.739968
      ],
      [
       35.213414,
       31.73997
      ],
      [
       35.213411,
       31.739973
      ],
      [
       35.213408,
       31.739975
      ],
      [
       35.213406,
       31.739978
      ],
      [
       35.213403,
       31.73998
      ],
      [
       35.213401,
       31.739983
      ],
      [
       35.213398,
       31.739986
      ],
      [
       35.213396,
       31.739988
      ],
      [
       35.213394,
       31.739991
      ],
      [
       35.213392,
       31.739994
      ],
      [
       35.213344,
       31.740056
      ],
      [
       35.213392,
       31.740149
      ]
     ]
    ]
   }
  }
 ]
}