{
 "type": "FeatureCollection",
 "features": [
  {
   "type": "Feature",
   "properties": {
    "P_CODE": "0",
    "AREA_CODE": "3000",
    "AREA_NAME": "עיריית ירושלים",
    "VAAD_NAME": ""
   },
   "geometry": {
    "type": "MultiLineString",
    "coordinates": [
     [
      [
       35.130794,
       31.781733
      ],
      [
       35.130796,
       31.781738
      ],
      [
       35.130877,
       31.781763
      ],
      [
       35.130967,
       31.781801
      ],
      [
       35.131122,
       31.781872
      ],
      [
       35.13121,
       31.781935
      ],
      [
       35.13125,
       31.781999
      ],
      [
       35.131315,
       31.782041
      ],
      [
       35.131374,
       31.782101
      ],
      [
       35.131385,
       31.782184
      ],
      [
       35.131335,
       31.782262
      ],
      [
       35.131261,
       31.78233
      ],
      [
       35.131197,
       31.782426
      ],
      [
       35.131147,
       31.78249
      ],
      [
       35.130619,
       31.78317
      ],
      [
       35.130572,
       31.783231
      ],
      [
       35.130559,
       31.783249
      ],
      [
       35.130529,
       31.783277
      ],
      [
       35.130479,
       31.783324
      ],
      [
       35.13047,
       31.783327
      ],
      [
       35.130399,
       31.783347
      ],
      [
       35.130374,
       31.78335
      ],
      [
       35.130362,
       31.783351
      ],
      [
       35.130321,
       31.783356
      ],
      [
       35.130271,
       31.783361
      ],
      [
       35.130229,
       31.783366
      ],
      [
       35.130195,
       31.78337
      ],
      [
       35.129953,
       31.783444
      ],
      [
       35.129896,
       31.783458
      ],
      [
       35.129909,
       31.78374
      ],
      [
       35.129909,
       31.783764
      ],
      [
       35.129908,
       31.783851
      ],
      [
       35.129903,
       31.784253
      ],
      [
       35.129792,
       31.785263
      ],
      [
       35.129783,
       31.785302
      ],
      [
       35.129784,
       31.785302
      ],
      [
       35.129915,
       31.785305
      ],
      [
       35.1302,
       31.785327
      ],
      [
       35.130391,
       31.785341
      ],
      [
       35.130514,
       31.785365
      ],
      [
       35.130621,
       31.785407
      ],
      [
       35.130726,
       31.785448
      ],
      [
       35.130739,
       31.785563
      ],
      [
       35.130758,
       31.785803
      ],
      [
       35.130756,
       31.78598
      ],
      [
       35.130752,
       31.786033
      ],
      [
       35.130832,
       31.786123
      ],
      [
       35.130745,
       31.786326
      ],
      [
       35.130721,
       31.786385
      ],
      [
       35.130724,
       31.786412
      ],
      [
       35.130745,
       31.786577
      ],
      [
       35.130764,
       31.786724
      ],
      [
       35.13079,
       31.786973
      ],
      [
       35.130813,
       31.78738
      ],
      [
       35.130852,
       31.787382
      ],
      [
       35.130946,
       31.787386
      ],
      [
       35.130936,
       31.787552
      ],
      [
       35.131113,
       31.78756
      ],
      [
       35.131228,
       31.787578
      ],
      [
       35.131174,
       31.788045
      ],
      [
       35.130983,
       31.788324
      ],
      [
       35.130853,
       31.788499
      ],
      [
       35.130796,
       31.788574
      ],
      [
       35.130906,
       31.788643
      ],
      [
       35.131003,
       31.788723
      ],
      [
       35.131051,
       31.788769
      ],
      [
       35.131192,
       31.788974
      ],
      [
       35.131165,
       31.789416
      ],
      [
       35.131153,
       31.789646
      ],
      [
       35.131125,
       31.790125
      ],
      [
       35.131102,
       31.790262
      ],
      [
       35.131436,
       31.790085
      ],
      [
       35.131511,
       31.790091
      ],
      [
       35.131604,
       31.790104
      ],
      [
       35.131797,
       31.790288
      ],
      [
       35.131959,
       31.790367
      ],
      [
       35.131975,
       31.790394
      ],
      [
       35.13203,
       31.790495
      ],
      [
       35.132056,
       31.790508
      ],
      [
       35.132103,
       31.79051
      ],
      [
       35.132113,
       31.790513
      ],
      [
       35.132058,
       31.7907
      ],
      [
       35.132095,
       31.790857
      ],
      [
       35.13212,
       31.790958
      ],
      [
       35.132144,
       31.791256
      ],
      [
       35.132177,
       31.791668
      ],
      [
       35.132239,
       31.791961
      ],
      [
       35.132302,
       31.792253
      ],
      [
       35.132662,
       31.79252
      ],
      [
       35.132764,
       31.792595
      ],
      [
       35.13303,
       31.793027
      ],
      [
       35.133148,
       31.793218
      ],
      [
       35.133258,
       31.793365
      ],
      [
       35.133418,
       31.793446
      ],
      [
       35.133633,
       31.793482
      ],
      [
       35.133754,
       31.793405
      ],
      [
       35.133917,
       31.793352
      ],
      [
       35.134004,
       31.793549
      ],
      [
       35.134005,
       31.793622
      ],
      [
       35.134028,
       31.793705
      ],
      [
       35.134035,
       31.793706
      ],
      [
       35.135019,
       31.793858
      ],
      [
       35.135119,
       31.793873
      ],
      [
       35.135541,
       31.793857
      ],
      [
       35.135541,
       31.793857
      ],
      [
       35.135541,
       31.793857
      ],
      [
       35.13565,
       31.793763
      ],
      [
       35.135771,
       31.793621
      ],
      [
       35.135923,
       31.793387
      ],
      [
       35.136595,
       31.792419
      ],
      [
       35.136653,
       31.792356
      ],
      [
       35.136492,
       31.792186
      ],
      [
       35.136436,
       31.792127
      ],
      [
       35.136406,
       31.792095
      ],
      [
       35.136283,
       31.79196
      ],
      [
       35.136154,
       31.791823
      ],
      [
       35.136061,
       31.791673
      ],
      [
       35.136037,
       31.791635
      ],
      [
       35.135967,
       31.791545
      ],
      [
       35.135859,
       31.791455
      ],
      [
       35.134618,
       31.790845
      ],
      [
       35.134367,
       31.790695
      ],
      [
       35.134206,
       31.790567
      ],
      [
       35.134068,
       31.790429
      ],
      [
       35.13401,
       31.790301
      ],
      [
       35.133964,
       31.790114
      ],
      [
       35.133861,
       31.789307
      ],
      [
       35.133805,
       31.788028
      ],
      [
       35.135039,
       31.786681
      ],
      [
       35.135039,
       31.786681
      ],
      [
       35.135341,
       31.786402
      ],
      [
       35.135716,
       31.786045
      ],
      [
       35.135814,
       31.785952
      ],
      [
       35.136482,
       31.785314
      ],
      [
       35.136538,
       31.78526
      ],
      [
       35.136566,
       31.785266
      ],
      [
       35.13667,
       31.78537
      ],
      [
       35.137415,
       31.786111
      ],
      [
       35.137451,
       31.786146
      ],
      [
       35.137528,
       31.786223
      ],
      [
       35.137737,
       31.78643
      ],
      [
       35.138052,
       31.786743
      ],
      [
       35.138104,
       31.786664
      ],
      [
       35.138278,
       31.786478
      ],
      [
       35.138359,
       31.786409
      ],
      [
       35.138359,
       31.786409
      ],
      [
       35.138019,
       31.786052
      ],
      [
       35.137652,
       31.785516
      ],
      [
       35.137479,
       31.785
      ],
      [
       35.137566,
       31.784298
      ],
      [
       35.137848,
       31.783542
      ],
      [
       35.138043,
       31.782878
      ],
      [
       35.138,
       31.782305
      ],
      [
       35.138324,
       31.781844
      ],
      [
       35.13845,
       31.781737
      ]
     ]
    ]
   }
  }
 ]
}