{"type": "FeatureCollection", "features": [{"type": "Feature", "properties": {"slug": "lev-hair", "name_en": "Lev HaIr", "name_he": "לב העיר", "centre_lat": 31.784, "centre_lng": 35.219, "palette": "teal"}, "geometry": {"type": "Polygon", "coordinates": [[[35.25392148760332, 31.767483471074378], [35.23976315789474, 31.767078947368418], [35.19104929577465, 31.78331690140845], [35.20501519154557, 31.80510369881109], [35.25392148760332, 31.767483471074378]]]}}, {"type": "Feature", "properties": {"slug": "ginot-hair", "name_en": "Ginot HaIr", "name_he": "גינות העיר", "centre_lat": 31.766, "centre_lng": 35.213, "palette": "purple"}, "geometry": {"type": "Polygon", "coordinates": [[[35.23976315789474, 31.767078947368418], [35.202535714285716, 31.75175], [35.1895125, 31.7821375], [35.19104929577465, 31.78331690140845], [35.23976315789474, 31.767078947368418]]]}}, {"type": "Feature", "properties": {"slug": "baka-talpiot", "name_en": "Baka & Talpiot", "name_he": "בקעה ותלפיות", "centre_lat": 31.749, "centre_lng": 35.22, "palette": "pink"}, "geometry": {"type": "Polygon", "coordinates": [[[35.202091836734695, 31.74864285714286], [35.202535714285716, 31.75175], [35.23976315789474, 31.767078947368418], [35.25411194029851, 31.76744776119403], [35.251, 31.755], [35.235, 31.735], [35.22490776699029, 31.72202427184466], [35.202091836734695, 31.74864285714286]]]}}, {"type": "Feature", "properties": {"slug": "ramat-eshkol", "name_en": "Ramat Eshkol & Ma'alot Dafna", "name_he": "רמת אשכול ומעלות דפנה", "centre_lat": 31.797, "centre_lng": 35.229, "palette": "teal-dk"}, "geometry": {"type": "Polygon", "coordinates": [[[35.25411194029851, 31.76744776119403], [35.20501519154557, 31.80510369881109], [35.20788521400778, 31.816822957198443], [35.263576576576575, 31.805684684684685], [35.263, 31.793], [35.256, 31.775], [35.25411194029851, 31.76744776119403]]]}}, {"type": "Feature", "properties": {"slug": "kiryat-hayovel", "name_en": "Kiryat HaYovel & Ir Ganim", "name_he": "קריית היובל ועיר גנים", "centre_lat": 31.754, "centre_lng": 35.185, "palette": "purple-dk"}, "geometry": {"type": "Polygon", "coordinates": [[[35.1895125, 31.7821375], [35.202535714285716, 31.75175], [35.202091836734695, 31.74864285714286], [35.17853977272727, 31.73430681818182], [35.17, 31.74], [35.15, 31.762], [35.145517241379316, 31.778137931034482], [35.1895125, 31.7821375]]]}}, {"type": "Feature", "properties": {"slug": "ramot", "name_en": "Ramot", "name_he": "רמות", "centre_lat": 31.809, "centre_lng": 35.18, "palette": "pink-dk"}, "geometry": {"type": "Polygon", "coordinates": [[[35.19104929577465, 31.78331690140845], [35.1895125, 31.7821375], [35.145517241379316, 31.778137931034482], [35.145, 31.78], [35.15, 31.803], [35.17, 31.822], [35.19, 31.836], [35.202326254826254, 31.833808665808665], [35.20788521400778, 31.816822957198443], [35.20501519154557, 31.80510369881109], [35.19104929577465, 31.78331690140845]]]}}, {"type": "Feature", "properties": {"slug": "gilo-har-homa", "name_en": "Gilo & Har Homa", "name_he": "גילה והר חומה", "centre_lat": 31.731, "centre_lng": 35.199, "palette": "teal-lt"}, "geometry": {"type": "Polygon", "coordinates": [[[35.202091836734695, 31.74864285714286], [35.22490776699029, 31.72202427184466], [35.221, 31.717], [35.2, 31.72], [35.17853977272727, 31.73430681818182], [35.202091836734695, 31.74864285714286]]]}}, {"type": "Feature", "properties": {"slug": "pisgat-neve", "name_en": "Pisgat Ze'ev & Neve Ya'akov", "name_he": "פסגת זאב ונווה יעקב", "centre_lat": 31.827, "centre_lng": 35.235, "palette": "purple-lt"}, "geometry": {"type": "Polygon", "coordinates": [[[35.202326254826254, 31.833808665808665], [35.235, 31.828], [35.264, 31.815], [35.263576576576575, 31.805684684684685], [35.20788521400778, 31.816822957198443], [35.202326254826254, 31.833808665808665]]]}}]}